NORAD_CAT_ID,OBJECT_NAME,OBJECT_TYPE,EPOCH,MEAN_MOTION,ECCENTRICITY,INCLINATION,RA_OF_ASC_NODE,ARG_OF_PERICENTER,MEAN_ANOMALY,BSTAR,MEAN_MOTION_DOT,MEAN_MOTION_DDOT,TLE_LINE0,TLE_LINE1,TLE_LINE2,SEMIMAJOR_AXIS,PERIOD,APOGEE,PERIGEE,DECAYED
53180.0,STARLINK-4258,PAYLOAD,2023-12-26 08:21:19,15.08783453,0.0001843,53.2189,134.8264,113.6278,246.4908,0.00070258,0.00010894,0.0,0 STARLINK-4258,1 53180U 22083BA  23360.34814003  .00010894  00000-0  70258-3 0  9996,2 53180  53.2189 134.8264 0001843 113.6278 246.4908 15.08783453 81128,6918.053,95.441,541.193,538.643,0.0
53180.0,STARLINK-4258,PAYLOAD,2023-12-26 14:42:51,15.08839933,0.0001341,53.2183,133.6332,105.1256,254.9885,-6.2713e-05,-1.286e-05,0.0,0 STARLINK-4258,1 53180U 22083BA  23360.61310104 -.00001286  00000-0 -62713-4 0  9994,2 53180  53.2183 133.6332 0001341 105.1256 254.9885 15.08839933 80526,6917.881,95.438,540.673,538.818,0.0
53180.0,STARLINK-4258,PAYLOAD,2023-12-27 14:33:39,15.08837225,0.0001338,53.2172,129.1727,67.7645,292.3489,6.2515e-05,7.07e-06,0.0,0 STARLINK-4258,1 53180U 22083BA  23361.60670389  .00000707  00000-0  62515-4 0  9993,2 53180  53.2172 129.1727 0001338  67.7645 292.3489 15.08837225 80677,6917.889,95.438,540.679,538.828,0.0
53180.0,STARLINK-4258,PAYLOAD,2023-12-27 19:19:48,15.08843585,0.0001296,53.2175,128.28,79.7948,280.319,0.0001082,1.435e-05,0.0,0 STARLINK-4258,1 53180U 22083BA  23361.80541824  .00001435  00000-0  10820-3 0  9996,2 53180  53.2175 128.2800 0001296  79.7948 280.3190 15.08843585 81341,6917.869,95.437,540.631,538.838,0.0
53180.0,STARLINK-4258,PAYLOAD,2023-12-28 14:24:26,15.08840166,0.0001376,53.219,124.7099,93.1103,267.0046,6.3841e-05,7.28e-06,0.0,0 STARLINK-4258,1 53180U 22083BA  23362.60030260  .00000728  00000-0  63841-4 0  9998,2 53180  53.2190 124.7099 0001376  93.1103 267.0046 15.08840166 80827,6917.88,95.438,540.697,538.793,0.0
53180.0,STARLINK-4258,PAYLOAD,2023-12-29 14:15:13,15.0884232,0.0001243,53.2164,120.2553,61.3321,298.7796,-1.8559e-05,-5.83e-06,0.0,0 STARLINK-4258,1 53180U 22083BA  23363.59390707 -.00000583  00000-0 -18559-4 0  9999,2 53180  53.2164 120.2553 0001243  61.3321 298.7796 15.08842320 80979,6917.873,95.437,540.598,538.878,0.0
53180.0,STARLINK-4258,PAYLOAD,2023-12-30 10:55:14,15.08842124,0.0001734,53.2165,116.3896,45.9372,314.1762,4.3473e-05,4.04e-06,0.0,0 STARLINK-4258,1 53180U 22083BA  23364.45502568  .00000404  00000-0  43473-4 0  9998,2 53180  53.2165 116.3896 0001734  45.9372 314.1762 15.08842124 81749,6917.874,95.437,540.938,538.539,0.0
53180.0,STARLINK-4258,PAYLOAD,2023-12-30 14:06:00,15.0884666,0.0001411,53.2165,115.7932,59.0335,301.0796,2.9836e-05,1.87e-06,0.0,0 STARLINK-4258,1 53180U 22083BA  23364.58750223  .00000187  00000-0  29836-4 0  9990,2 53180  53.2165 115.7932 0001411  59.0335 301.0796 15.08846660 81123,6917.86,95.437,540.701,538.749,0.0
53180.0,STARLINK-4258,PAYLOAD,2023-12-31 12:21:24,15.08839028,0.0001341,53.2165,111.6299,71.1812,288.9325,-3.0655e-05,-7.76e-06,0.0,0 STARLINK-4258,1 53180U 22083BA  23365.51486828 -.00000776  00000-0 -30655-4 0  9998,2 53180  53.2165 111.6299 0001341  71.1812 288.9325 15.08839028 81908,6917.883,95.438,540.676,538.821,0.0
53180.0,STARLINK-4258,PAYLOAD,2024-01-01 12:12:11,15.0884168,0.0001232,53.2166,107.1685,85.4438,274.6695,1.7682e-05,-6e-08,0.0,0 STARLINK-4258,1 53180U 22083BA  24001.50846491 -.00000006  00000-0  17682-4 0  9991,2 53180  53.2166 107.1685 0001232  85.4438 274.6695 15.08841680 81414,6917.875,95.437,540.593,538.888,0.0
53180.0,STARLINK-4258,PAYLOAD,2024-01-01 16:58:20,15.08844239,0.0001238,53.2167,106.2757,90.8196,269.2938,3.3778e-05,2.5e-06,0.0,0 STARLINK-4258,1 53180U 22083BA  24001.70718202  .00000250  00000-0  33778-4 0  9995,2 53180  53.2167 106.2757 0001238  90.8196 269.2938 15.08844239 82089,6917.867,95.437,540.589,538.876,0.0
53180.0,STARLINK-4258,PAYLOAD,2024-01-02 13:38:21,15.088422,0.0001288,53.2175,102.4094,87.8215,272.2924,7.2569e-05,8.67e-06,0.0,0 STARLINK-4258,1 53180U 22083BA  24002.56830398  .00000867  00000-0  72569-4 0  9996,2 53180  53.2175 102.4094 0001288  87.8215 272.2924 15.08842200 81571,6917.874,95.437,540.63,538.848,0.0
53180.0,STARLINK-4258,PAYLOAD,2024-01-02 16:49:07,15.0884386,0.0001289,53.2174,101.8144,90.8296,269.2844,8.2496e-05,1.025e-05,0.0,0 STARLINK-4258,1 53180U 22083BA  24002.70078227  .00001025  00000-0  82496-4 0  9994,2 53180  53.2174 101.8144 0001289  90.8296 269.2844 15.08843860 81595,6917.869,95.437,540.625,538.842,0.0
53180.0,STARLINK-4258,PAYLOAD,2024-01-03 11:53:46,15.08833886,0.0001298,53.2172,98.2477,96.6349,263.4791,-2.1087e-05,-6.23e-06,0.0,0 STARLINK-4258,1 53180U 22083BA  24003.49567464 -.00000623  00000-0 -21087-4 0  9991,2 53180  53.2172  98.2477 0001298  96.6349 263.4791 15.08833886 82353,6917.899,95.438,540.662,538.866,0.0
53180.0,STARLINK-4258,PAYLOAD,2024-01-04 10:09:09,15.08841945,0.0001318,53.2176,94.0836,95.8099,264.3044,2.585e-05,1.24e-06,0.0,0 STARLINK-4258,1 53180U 22083BA  24004.42303047  .00000124  00000-0  25850-4 0  9996,2 53180  53.2176  94.0836 0001318  95.8099 264.3044 15.08841945 82497,6917.874,95.437,540.651,538.828,0.0
53180.0,STARLINK-4258,PAYLOAD,2024-01-04 13:19:55,15.08844149,0.0001316,53.2177,93.4889,92.8387,267.2756,4.353e-05,4.05e-06,0.0,0 STARLINK-4258,1 53180U 22083BA  24004.55550856  .00000405  00000-0  43530-4 0  9999,2 53180  53.2177  93.4889 0001316  92.8387 267.2756 15.08844149 81876,6917.868,95.437,540.643,538.822,0.0
53180.0,STARLINK-4258,PAYLOAD,2024-01-05 09:59:57,15.08835252,0.0001297,53.2178,89.6237,90.7053,269.4088,3.75e-05,3.09e-06,0.0,0 STARLINK-4258,1 53180U 22083BA  24005.41663624  .00000309  00000-0  37500-4 0  9996,2 53180  53.2178  89.6237 0001297  90.7053 269.4088 15.08835252 82649,6917.895,95.438,540.657,538.863,0.0
53180.0,STARLINK-4258,PAYLOAD,2024-01-05 13:10:43,15.08838748,0.0001414,53.2179,89.0295,80.7189,279.3963,9.5439e-05,1.231e-05,0.0,0 STARLINK-4258,1 53180U 22083BA  24005.54911335  .00001231  00000-0  95439-4 0  9995,2 53180  53.2179  89.0295 0001414  80.7189 279.3963 15.08838748 82025,6917.884,95.438,540.727,538.771,0.0
53180.0,STARLINK-4258,PAYLOAD,2024-01-05 14:46:06,15.08842002,0.0001399,53.2178,88.7319,83.652,276.4632,0.00011398,1.527e-05,0.0,0 STARLINK-4258,1 53180U 22083BA  24005.61535051  .00001527  00000-0  11398-3 0  9999,2 53180  53.2178  88.7319 0001399  83.6520 276.4632 15.08842002 82670,6917.874,95.437,540.707,538.771,0.0
53180.0,STARLINK-4258,PAYLOAD,2024-01-06 05:04:35,15.08837333,0.0001322,53.218,86.0543,99.3136,260.8006,-4.2705e-05,-9.67e-06,0.0,0 STARLINK-4258,1 53180U 22083BA  24006.21151847 -.00000967  00000-0 -42705-4 0  9999,2 53180  53.2180  86.0543 0001322  99.3136 260.8006 15.08837333 82769,6917.889,95.438,540.668,538.839,0.0
53180.0,STARLINK-4258,PAYLOAD,2024-01-06 11:26:07,15.08840626,0.0001341,53.2171,84.8655,102.4834,257.6308,2.2476e-05,7e-07,0.0,0 STARLINK-4258,1 53180U 22083BA  24006.47647444  .00000070  00000-0  22476-4 0  9996,2 53180  53.2171  84.8655 0001341 102.4834 257.6308 15.08840626 82163,6917.878,95.438,540.671,538.816,0.0
53180.0,STARLINK-4258,PAYLOAD,2024-01-07 11:16:54,15.08848289,0.0001549,53.2172,80.4069,76.1809,283.9355,6.6412e-05,7.69e-06,0.0,0 STARLINK-4258,1 53180U 22083BA  24007.47006950  .00000769  00000-0  66412-4 0  9991,2 53180  53.2172  80.4069 0001549  76.1809 283.9355 15.08848289 82318,6917.855,95.437,540.792,538.648,0.0
53180.0,STARLINK-4258,PAYLOAD,2024-01-08 11:07:41,15.08844952,0.0001404,53.2176,75.9446,90.1707,269.9446,5.7118e-05,6.21e-06,0.0,0 STARLINK-4258,1 53180U 22083BA  24008.46366996  .00000621  00000-0  57118-4 0  9990,2 53180  53.2176  75.9446 0001404  90.1707 269.9446 15.08844952 83109,6917.865,95.437,540.702,538.759,0.0
53180.0,STARLINK-4258,PAYLOAD,2024-01-08 23:50:46,15.08841857,0.0001346,53.2179,73.5645,114.6734,245.4399,-5.9123e-05,-1.229e-05,0.0,0 STARLINK-4258,1 53180U 22083BA  24008.99359446 -.00001229  00000-0 -59123-4 0  9995,2 53180  53.2179  73.5645 0001346 114.6734 245.4399 15.08841857 83189,6917.875,95.437,540.671,538.809,0.0
53180.0,STARLINK-4258,PAYLOAD,2024-01-09 10:58:28,15.08847358,0.0001432,53.2183,71.4823,102.3529,257.7624,-1.6214e-05,-5.46e-06,0.0,0 STARLINK-4258,1 53180U 22083BA  24009.45726963 -.00000546  00000-0 -16214-4 0  9994,2 53180  53.2183  71.4823 0001432 102.3529 257.7624 15.08847358 82617,6917.858,95.437,540.714,538.732,0.0
53180.0,STARLINK-4258,PAYLOAD,2024-01-10 04:27:43,15.08832358,8.69e-05,53.2182,68.2114,91.9136,268.1956,-7.0793e-05,-1.414e-05,0.0,0 STARLINK-4258,1 53180U 22083BA  24010.18592151 -.00001414  00000-0 -70793-4 0  9993,2 53180  53.2182  68.2114 0000869  91.9136 268.1956 15.08832358 83364,6917.904,95.438,540.37,539.168,0.0
53180.0,STARLINK-4258,PAYLOAD,2024-01-10 09:13:52,15.08839609,0.0001483,53.2182,67.3192,105.7773,254.3383,-1.1955e-05,-4.78e-06,0.0,0 STARLINK-4258,1 53180U 22083BA  24010.38463532 -.00000478  00000-0 -11955-4 0  9999,2 53180  53.2182  67.3192 0001483 105.7773 254.3383 15.08839609 83394,6917.882,95.438,540.773,538.721,0.0
53180.0,STARLINK-4258,PAYLOAD,2024-01-11 10:40:02,15.08843092,0.0001655,53.2175,62.5679,88.417,271.7011,0.00012689,1.732e-05,0.0,0 STARLINK-4258,1 53180U 22083BA  24011.44447374  .00001732  00000-0  12689-3 0  9999,2 53180  53.2175  62.5679 0001655  88.4170 271.7011 15.08843092 83552,6917.871,95.437,540.881,538.591,0.0
53180.0,STARLINK-4258,PAYLOAD,2024-01-11 12:15:25,15.08848226,0.0001621,53.219,62.2721,107.9683,252.1486,0.00014036,1.947e-05,0.0,0 STARLINK-4258,1 53180U 22083BA  24011.51070961  .00001947  00000-0  14036-3 0  9997,2 53180  53.2190  62.2721 0001621 107.9683 252.1486 15.08848226 82926,6917.855,95.437,540.842,538.599,0.0
53180.0,STARLINK-4258,PAYLOAD,2024-01-11 23:23:05,15.08867403,0.0001606,53.2176,60.1892,67.9718,292.1445,0.00034485,5.209e-05,0.0,0 STARLINK-4258,1 53180U 22083BA  24011.97436685  .00005209  00000-0  34485-3 0  9991,2 53180  53.2176  60.1892 0001606  67.9718 292.1445 15.08867403 83639,6917.797,95.436,540.773,538.551,0.0
